SL-3 R/B                
1 13403U 82079B   26063.15436492  .00010091  00000+0  40341-3 0  9993
2 13403  81.1474 199.6116 0024824 183.4819 176.6246 15.24699282376854
SL-14 R/B               
1 13553U 82092B   26063.18541867  .00000694  00000+0  75168-4 0  9994
2 13553  82.5702 146.5472 0019350 322.9535  64.5151 14.86660176328111
SL-3 R/B                
1 13819U 83010B   26062.28954010  .00019262  00000+0  39033-3 0  9999
2 13819  81.1059  10.0905 0018467  71.2910 289.0337 15.46076306356957
SL-3 R/B                
1 14208U 83075B   26063.15807729  .00016249  00000+0  43021-3 0  9998
2 14208  97.6133  67.5262 0019750 247.5377 112.3776 15.38256074329306
COSMOS 1536             
1 14699U 84013A   26063.13812529  .00008996  00000+0  37218-3 0  9998
2 14699  82.5437 113.3693 0012780 305.1406  54.8633 15.23740059271772
SL-14 R/B               
1 14820U 84027B   26062.56543012  .00000631  00000+0  69372-4 0  9998
2 14820  82.5381 250.7582 0017893 358.7280   1.3888 14.85968921246726
SL-8 R/B                
1 15483U 85006B   26063.03986294  .00000220  00000+0  81763-4 0  9990
2 15483  74.0434 271.5456 0018680 190.6418 322.8304 14.37778554153212
SL-12 R/B(2)            
1 15772U 85042D   26063.13679167  .00000176  00000+0  10053-3 0  9993
2 15772  71.1064  99.4615 0033494 137.2401 283.5288 14.21980782113607
SL-14 R/B               
1 15945U 85069B   26062.82133637  .00000716  00000+0  78224-4 0  9991
2 15945  82.5272  30.4506 0017958 207.6581 152.3682 14.86424880171965
SL-16 R/B               
1 16182U 85097B   26062.71188084 -.00000009  00000+0  19394-4 0  9999
2 16182  71.0037 153.1385 0009957 266.8264 204.2668 14.16599704 86387
SL-14 R/B               
1 16496U 86006B   26063.06912487  .00000832  00000+0  86044-4 0  9998
2 16496  82.5234 265.0285 0075179 291.8180  67.5051 14.86806497148378
COSMOS 1743             
1 16719U 86034A   26063.11966276  .00043920  00000+0  58201-3 0  9996
2 16719  82.5291  79.6750 0002179 332.2042  27.9096 15.58087039179389
